{
    "links": {
        "self": "http://www.neowsapp.com/rest/v1/neo/3314788?api_key=iIulBulltgU6a56xZRHN4H3l9WmuAYTsLGpBGhQ2"
    },
    "id": "3314788",
    "neo_reference_id": "3314788",
    "name": "(2006 BP147)",
    "designation": "2006 BP147",
    "nasa_jpl_url": "http://ssd.jpl.nasa.gov/sbdb.cgi?sstr=3314788",
    "absolute_magnitude_h": 26.5,
    "estimated_diameter": {
        "kilometers": {
            "estimated_diameter_min": 0.0133215567,
            "estimated_diameter_max": 0.0297879063
        },
        "meters": {
            "estimated_diameter_min": 13.3215566698,
            "estimated_diameter_max": 29.7879062798
        },
        "miles": {
            "estimated_diameter_min": 0.008277629,
            "estimated_diameter_max": 0.0185093411
        },
        "feet": {
            "estimated_diameter_min": 43.7058959846,
            "estimated_diameter_max": 97.7293544391
        }
    },
    "is_potentially_hazardous_asteroid": false,
    "close_approach_data": [
        {
            "close_approach_date": "1947-01-28",
            "close_approach_date_full": "1947-Jan-28 20:31",
            "epoch_date_close_approach": -723439740000,
            "relative_velocity": {
                "kilometers_per_second": "5.1248999185",
                "kilometers_per_hour": "18449.63970675",
                "miles_per_hour": "11463.8886277859"
            },
            "miss_distance": {
                "astronomical": "0.0712472384",
                "lunar": "27.7151757376",
                "kilometers": "10658435.108022208",
                "miles": "6622844.4707461504"
            },
            "orbiting_body": "Mars"
        },
        {
            "close_approach_date": "1949-02-02",
            "close_approach_date_full": "1949-Feb-02 15:45",
            "epoch_date_close_approach": -659866500000,
            "relative_velocity": {
                "kilometers_per_second": "16.6190517774",
                "kilometers_per_hour": "59828.5863987476",
                "miles_per_hour": "37175.1569209329"
            },
            "miss_distance": {
                "astronomical": "0.409577988",
                "lunar": "159.325837332",
                "kilometers": "61271994.60368556",
                "miles": "38072651.994398328"
            },
            "orbiting_body": "Earth"
        },
        {
            "close_approach_date": "2006-01-07",
            "close_approach_date_full": "2006-Jan-07 09:01",
            "epoch_date_close_approach": 1136624460000,
            "relative_velocity": {
                "kilometers_per_second": "4.8240181375",
                "kilometers_per_hour": "17366.4652950329",
                "miles_per_hour": "10790.8461717942"
            },
            "miss_distance": {
                "astronomical": "0.0481802289",
                "lunar": "18.7421090421",
                "kilometers": "7207659.619552443",
                "miles": "4478632.0106639934"
            },
            "orbiting_body": "Earth"
        },
        {
            "close_approach_date": "2008-09-30",
            "close_approach_date_full": "2008-Sep-30 20:44",
            "epoch_date_close_approach": 1222807440000,
            "relative_velocity": {
                "kilometers_per_second": "16.0794533612",
                "kilometers_per_hour": "57886.032100378",
                "miles_per_hour": "35968.1292237043"
            },
            "miss_distance": {
                "astronomical": "0.4132116315",
                "lunar": "160.7393246535",
                "kilometers": "61815579.931624905",
                "miles": "38410420.254657489"
            },
            "orbiting_body": "Earth"
        }
    ],
    "orbital_data": {
        "orbit_id": "6",
        "orbit_determination_date": "2017-04-06 09:09:12",
        "first_observation_date": "2006-01-28",
        "last_observation_date": "2006-02-02",
        "data_arc_in_days": 5,
        "observations_used": 18,
        "orbit_uncertainty": "8",
        "minimum_orbit_intersection": ".0469732",
        "jupiter_tisserand_invariant": "5.003",
        "epoch_osculation": "2453766.5",
        "eccentricity": ".2404930153579411",
        "semi_major_axis": "1.287322956676594",
        "inclination": "5.599754116784242",
        "ascending_node_longitude": "310.8123526039474",
        "orbital_period": "533.4941946891427",
        "perihelion_distance": ".9777307770859401",
        "perihelion_argument": "123.0570709726207",
        "aphelion_distance": "1.596915136267249",
        "perihelion_time": "2453712.756383656606",
        "mean_anomaly": "36.26600265987035",
        "mean_motion": ".6747964712338911",
        "equinox": "J2000",
        "orbit_class": {
            "orbit_class_type": "APO",
            "orbit_class_description": "Near-Earth asteroid orbits which cross the Earth’s orbit similar to that of 1862 Apollo",
            "orbit_class_range": "a (semi-major axis) > 1.0 AU; q (perihelion) < 1.017 AU"
        }
    },
    "is_sentry_object": false
}